SL-8 R/B                
1 15483U 85006B   26157.60061079  .00000298  00000+0  10739-3 0  9991
2 15483  74.0452  97.5445 0018475 346.6650 186.0585 14.37830311166809
SL-12 R/B(2)            
1 15772U 85042D   26157.68925808  .00000128  00000+0  78988-4 0  9992
2 15772  71.1086 259.6951 0035732 343.7567 120.5638 14.22004008127049
SL-14 R/B               
1 15945U 85069B   26157.66831395  .00000510  00000+0  54786-4 0  9993
2 15945  82.5263 301.2593 0017268 256.5809 103.3483 14.86507391186050
SL-16 R/B               
1 16182U 85097B   26157.73664369  .00000032  00000+0  40125-4 0  9992
2 16182  71.0037 313.0798 0005701 132.2114 239.2221 14.16612271 99848
SL-14 R/B               
1 16496U 86006B   26157.75565703  .00000614  00000+0  62491-4 0  9991
2 16496  82.5261 175.9301 0075743 338.5283  21.2760 14.86935217162447
COSMOS 1743             
1 16719U 86034A   26157.54265178  .00054912  00000+0  53580-3 0  9998
2 16719  82.5281 340.0421 0003589 323.6293  36.4722 15.65982011194128
SL-14 R/B               
1 16792U 86046B   26157.64606638  .00000384  00000+0  41353-4 0  9993
2 16792  82.4818 356.1373 0021689 295.7160  64.1817 14.85664022139617
SL-14 R/B               
1 16882U 86055B   26157.96598694  .00000438  00000+0  47535-4 0  9998
2 16882  82.5212  42.7426 0019894  40.4296 330.1767 14.85716018132620
AJISAI (EGS)            
1 16908U 86061A   26157.93670084 -.00000095  00000+0  17009-4 0  9998
2 16908  50.0071 178.9160 0011273 154.5850 275.7588 12.44516734479114
SL-14 R/B               
1 17567U 87024B   26157.84915839  .00000384  00000+0  40903-4 0  9999
2 17567  82.5284   8.9686 0017418 329.8134  30.2077 14.86206301101377
COSMOS 1833             
1 17589U 87027A   26157.70217631  .00000294  00000+0  18287-3 0  9995
2 17589  70.9152 138.9077 0022552  72.6238 287.7346 14.13042141 22894
SL-16 R/B               
1 17590U 87027B   26157.55791721  .00000228  00000+0  13685-3 0  9991
2 17590  71.0029  89.2267 0005970 325.2093  34.8639 14.17171015 27934
SL-14 R/B               
1 17912U 87038B   26157.95727937  .00000369  00000+0  39890-4 0  9996
2 17912  82.5014 212.7076 0018079 226.3363 133.6356 14.85439251 92489
COSMOS 1844             
1 17973U 87041A   26157.57076126 -.00000101  00000+0 -26982-4 0  9996
2 17973  70.8988 206.7004 0033278 250.8672 108.8846 14.14570090 16150
SL-14 R/B               
1 18153U 87055B   26157.64922859  .00000487  00000+0  53132-4 0  9995
2 18153  82.4996 265.1625 0022145  80.3704 280.0013 14.85703483 83144
COSMOS 1867             
1 18187U 87060A   26157.44450040 -.00000028  00000+0  27048-4 0  9993
2 18187  65.0116  58.1441 0016276 282.0448  77.8812 14.31514622 32646
SL-14 R/B               
1 18749U 88001B   26157.58314999  .00000501  00000+0  55022-4 0  9998
2 18749  82.5123 111.7492 0016767 307.7939  52.1758 14.85601857 55229
COSMOS 1933             
1 18958U 88020A   26157.75889511  .00004748  00000+0  22784-3 0  9992
2 18958  82.5120 162.7620 0002480 230.5853 129.5161 15.18647829 63741
SL-3 R/B                
1 19046U 88032B   26157.84724047  .00004879  00000+0  22322-3 0  9999
2 19046  97.5253 140.8992 0023676 283.9182  75.9419 15.20761753 65657
SL-16 R/B               
1 19120U 88039B   26157.62199824  .00000152  00000+0  94652-4 0  9990
2 19120  71.0149 240.4978 0022821 208.7304 151.2565 14.19628619971009
COSMOS 1953             
1 19210U 88050A   26157.55382635  .00009514  00000+0  32767-3 0  9998
2 19210  82.5077  68.7552 0011234 159.7421 200.4267 15.29826663 51361
SL-8 R/B                
1 19257U 88053B   26157.70663177  .00000301  00000+0  10581-3 0  9997
2 19257  74.0477 308.3768 0019260 107.5146 263.7375 14.38963737989406
COSMOS 1975             
1 19573U 88093A   26157.68501644  .00007891  00000+0  27708-3 0  9999
2 19573  82.5200  28.2651 0010355 209.1672 150.8991 15.29189896 33006
SL-14 R/B               
1 19574U 88093B   26157.56574156  .00000515  00000+0  56199-4 0  9998
2 19574  82.5305 318.6176 0022163 103.1974 325.5188 14.85733758 14213
SL-16 R/B               
1 19650U 88102B   26157.76327079  .00000002  00000+0  25046-4 0  9994
2 19650  71.0005 324.0728 0016116 239.6836 120.2694 14.16166658939508
INTERCOSMOS 24          
1 20261U 89080A   26157.45308340  .00000963  00000+0  27427-3 0  9996
2 20261  82.6075  46.6282 1188322  86.7900 286.8152 12.59644676677972
SL-14 R/B               
1 20262U 89080C   26157.60280772  .00000508  00000+0  15141-3 0  9997
2 20262  82.5917 116.1069 1229364 341.6182  14.3923 12.50563466671264
DELTA 1 R/B             
1 20323U 89089B   26157.80432611  .00000370  00000+0  10016-3 0  9990
2 20323  97.0641 351.0239 0068360 199.7922 160.0622 14.50724485908659
ARIANE 40 R/B           
1 20443U 90005H   26157.62142970  .00000267  00000+0  98237-4 0  9996
2 20443  98.2964 215.5656 0008919 300.8443  59.1867 14.39921906905602
DELTA 2 R/B(1)          
1 20453U 90008B   26157.11184448  .00100860  00000+0  79153-3 0  9995
2 20453  35.5996 309.6616 0068397   9.6562 350.5477 15.67094261939963
