OBJECT_NAME,OBJECT_ID,EPOCH,MEAN_MOTION,ECCENTRICITY,INCLINATION,RA_OF_ASC_NODE,ARG_OF_PERICENTER,MEAN_ANOMALY,EPHEMERIS_TYPE,CLASSIFICATION_TYPE,NORAD_CAT_ID,ELEMENT_SET_NO,REV_AT_EPOCH,BSTAR,MEAN_MOTION_DOT,MEAN_MOTION_DDOT
SL-8 R/B,1985-006B,2026-06-06T14:24:52.772256,14.37830311,.0018475,74.0452,97.5445,346.6650,186.0585,0,U,15483,999,16680,.10739E-3,.298E-5,0
SL-12 R/B(2),1985-042D,2026-06-06T16:32:31.898112,14.22004008,.0035732,71.1086,259.6951,343.7567,120.5638,0,U,15772,999,12704,.78987558E-4,.128E-5,0
SL-14 R/B,1985-069B,2026-06-06T16:02:22.325280,14.86507391,.00172683,82.5263,301.2593,256.5809,103.3483,0,U,15945,999,18605,.54785611E-4,.51E-5,0
SL-16 R/B,1985-097B,2026-06-06T17:40:46.014816,14.16612271,.0005701,71.0037,313.0798,132.2114,239.2221,0,U,16182,999,9984,.4012465E-4,.32E-6,0
SL-14 R/B,1986-006B,2026-06-06T18:08:08.767392,14.86935217,.00757438,82.5261,175.9301,338.5283,21.2760,0,U,16496,999,16244,.62491287E-4,.614E-5,0
COSMOS 1743,1986-034A,2026-06-06T13:01:25.113792,15.65982011,.0003589,82.5281,340.0421,323.6293,36.4722,0,U,16719,999,19412,.5358E-3,.54912E-3,0
SL-14 R/B,1986-046B,2026-06-06T15:30:20.135232,14.85664022,.00216893,82.4818,356.1373,295.7160,64.1817,0,U,16792,999,13961,.41352557E-4,.384E-5,0
SL-14 R/B,1986-055B,2026-06-06T23:11:01.271616,14.85716018,.00198941,82.5212,42.7426,40.4296,330.1767,0,U,16882,999,13262,.47535313E-4,.438E-5,0
AJISAI (EGS),1986-061A,2026-06-06T22:28:50.952576,12.44516734,.00112732,50.0071,178.9160,154.5850,275.7588,0,U,16908,999,47911,.1700946E-4,-.95E-6,0
SL-14 R/B,1987-024B,2026-06-06T20:22:47.284896,14.86206301,.00174182,82.5284,8.9686,329.8134,30.2077,0,U,17567,999,10137,.40903152E-4,.384E-5,0
COSMOS 1833,1987-027A,2026-06-06T16:51:08.033184,14.13042141,.00225521,70.9152,138.9077,72.6238,287.7346,0,U,17589,999,2289,.18287465E-3,.294E-5,0
SL-16 R/B,1987-027B,2026-06-06T13:23:24.046944,14.17171015,.000597,71.0029,89.2267,325.2093,34.8639,0,U,17590,999,2793,.13685E-3,.228E-5,0
SL-14 R/B,1987-038B,2026-06-06T22:58:28.937568,14.85439251,.00180796,82.5014,212.7076,226.3363,133.6356,0,U,17912,999,9248,.39889837E-4,.369E-5,0
COSMOS 1844,1987-041A,2026-06-06T13:41:53.772864,14.14570090,.0033278,70.8988,206.7004,250.8672,108.8846,0,U,17973,999,1615,-.2698197E-4,-.101E-5,0
SL-14 R/B,1987-055B,2026-06-06T15:34:53.350176,14.85703483,.00221456,82.4996,265.1625,80.3704,280.0013,0,U,18153,999,8314,.53131547E-4,.487E-5,0
COSMOS 1867,1987-060A,2026-06-06T10:40:04.834560,14.31514622,.00162764,65.0116,58.1441,282.0448,77.8812,0,U,18187,999,3264,.27047729E-4,-.28E-6,0
SL-14 R/B,1988-001B,2026-06-06T13:59:44.159136,14.85601857,.0016767,82.5123,111.7492,307.7939,52.1758,0,U,18749,999,5522,.55022E-4,.501E-5,0
COSMOS 1933,1988-020A,2026-06-06T18:12:48.537504,15.18647829,.00024809,82.5120,162.7620,230.5853,129.5161,0,U,18958,999,6374,.22783701E-3,.4748E-4,0
SL-3 R/B,1988-032B,2026-06-06T20:20:01.576608,15.20761753,.00236769,97.5253,140.8992,283.9182,75.9419,0,U,19046,999,6565,.22321867E-3,.4879E-4,0
SL-16 R/B,1988-039B,2026-06-06T14:55:40.647936,14.19628619,.00228214,71.0149,240.4978,208.7304,151.2565,0,U,19120,999,97100,.94652172E-4,.152E-5,0
COSMOS 1953,1988-050A,2026-06-06T13:17:30.596640,15.29826663,.00112346,82.5077,68.7552,159.7421,200.4267,0,U,19210,999,5136,.3276722E-3,.9514E-4,0
SL-8 R/B,1988-053B,2026-06-06T16:57:32.984928,14.38963737,.00192607,74.0477,308.3768,107.5146,263.7375,0,U,19257,999,98940,.10581363E-3,.301E-5,0
COSMOS 1975,1988-093A,2026-06-06T16:26:25.420416,15.29189896,.00103558,82.5200,28.2651,209.1672,150.8991,0,U,19573,999,3300,.27707572E-3,.7891E-4,0
SL-14 R/B,1988-093B,2026-06-06T13:34:40.070784,14.85733758,.00221636,82.5305,318.6176,103.1974,325.5188,0,U,19574,999,1421,.56199203E-4,.515E-5,0
SL-16 R/B,1988-102B,2026-06-06T18:19:06.596256,14.16166658,.00161163,71.0005,324.0728,239.6836,120.2694,0,U,19650,999,93950,.25046274E-4,.2E-7,0
INTERCOSMOS 24,1989-080A,2026-06-06T10:52:26.405760,12.59644676,.11883221,82.6075,46.6282,86.7900,286.8152,0,U,20261,999,67797,.27426973E-3,.963E-5,0
SL-14 R/B,1989-080C,2026-06-06T14:28:02.587008,12.50563466,.1229364,82.5917,116.1069,341.6182,14.3923,0,U,20262,999,67126,.15141E-3,.508E-5,0
DELTA 1 R/B,1989-089B,2026-06-06T19:18:13.775904,14.50724485,.00683601,97.0641,351.0239,199.7922,160.0622,0,U,20323,999,90865,.10015674E-3,.37E-5,0
ARIANE 40 R/B,1990-005H,2026-06-06T14:54:51.526080,14.39921906,.00089195,98.2964,215.5656,300.8443,59.1867,0,U,20443,999,90560,.98236899E-4,.267E-5,0
DELTA 2 R/B(1),1990-008B,2026-06-06T02:41:03.363072,15.67094261,.0068397,35.5996,309.6616,9.6562,350.5477,0,U,20453,999,93996,.79153E-3,.10086E-2,0
